GLOBALSTAR M084         
1 38040U 11080A   24167.92793501 -.00000097  00000+0  36758-4 0  9990
2 38040  52.0013  83.4987 0000694  31.5635  45.5305 12.62263453576418
GLOBALSTAR M080         
1 38041U 11080B   24167.90304769 -.00000103  00000+0  17370-5 0  9991
2 38041  52.0067  85.0518 0000590   8.3951  75.9185 12.62273493576535
GLOBALSTAR M082         
1 38042U 11080C   24167.90082072 -.00000086  00000+0  96698-4 0  9991
2 38042  52.0094  40.4685 0001335  87.3915 285.9033 12.62270349577242
GLOBALSTAR M092         
1 38043U 11080D   24167.67131735 -.00000113  00000+0 -49588-4 0  9995
2 38043  52.0074 131.5217 0000457  28.7714 142.2027 12.62262877575663
GLOBALSTAR M090         
1 38044U 11080E   24167.94693562 -.00000091  00000+0  74008-4 0  9996
2 38044  51.9903  34.6085 0001024  87.3173  15.7648 12.62264088577368
GLOBALSTAR M086         
1 38045U 11080F   24167.95326520 -.00000089  00000+0  79655-4 0  9995
2 38045  51.9918  35.1106 0000446 163.4306 209.2968 12.62263382577312
GLOBALSTAR M097         
1 39072U 13005A   24167.73991992 -.00000095  00000+0  47180-4 0  9997
2 39072  52.0062 309.9392 0000910 127.5795 232.5155 12.62263793524532
GLOBALSTAR M093         
1 39073U 13005B   24167.87167699 -.00000090  00000+0  74141-4 0  9994
2 39073  51.9826 303.4263 0000987 132.5834 227.5116 12.62260271524505
